NORAD_CAT_ID,OBJECT_NAME,OBJECT_TYPE,EPOCH,MEAN_MOTION,ECCENTRICITY,INCLINATION,RA_OF_ASC_NODE,ARG_OF_PERICENTER,MEAN_ANOMALY,BSTAR,MEAN_MOTION_DOT,MEAN_MOTION_DDOT,TLE_LINE0,TLE_LINE1,TLE_LINE2,SEMIMAJOR_AXIS,PERIOD,APOGEE,PERIGEE,DECAYED
53593.0,STARLINK-4671,PAYLOAD,2023-08-12 05:07:50,15.08842357,0.0001027,53.2171,146.1708,100.0909,260.0199,9.0263e-05,1.149e-05,0.0,0 STARLINK-4671,1 53593U 22104F   23224.21377801  .00001149  00000-0  90263-4 0  9995,2 53593  53.2171 146.1708 0001027 100.0909 260.0199 15.08842357 52942,6917.873,95.437,540.449,539.028,0.0
53593.0,STARLINK-4671,PAYLOAD,2023-08-13 01:47:51,15.0883725,0.0001004,53.2173,142.3075,100.7721,259.3384,2.2348e-05,6.8e-07,0.0,0 STARLINK-4671,1 53593U 22104F   23225.07490495  .00000068  00000-0  22348-4 0  9993,2 53593  53.2173 142.3075 0001004 100.7721 259.3384 15.08837250 53071,6917.889,95.438,540.448,539.059,0.0
53593.0,STARLINK-4671,PAYLOAD,2023-08-14 03:14:02,15.08839445,0.0001056,53.217,137.5481,91.0846,269.0267,5.9651e-05,6.62e-06,0.0,0 STARLINK-4671,1 53593U 22104F   23226.13474640  .00000662  00000-0  59651-4 0  9992,2 53593  53.2170 137.5481 0001056  91.0846 269.0267 15.08839445 53236,6917.882,95.438,540.478,539.017,0.0
53593.0,STARLINK-4671,PAYLOAD,2023-08-15 23:44:49,15.08843978,0.0001058,53.2168,129.2208,94.8849,265.2264,0.00010397,1.367e-05,0.0,0 STARLINK-4671,1 53593U 22104F   23227.98946266  .00001367  00000-0  10397-3 0  9990,2 53593  53.2168 129.2208 0001058  94.8849 265.2264 15.08843978 53516,6917.868,95.437,540.465,539.001,0.0
53593.0,STARLINK-4671,PAYLOAD,2023-08-16 23:35:36,15.08841328,9.74e-05,53.2164,124.7622,79.067,281.0432,3.7441e-06,-2.28e-06,0.0,0 STARLINK-4671,1 53593U 22104F   23228.98306662 -.00000228  00000-0  37441-5 0  9998,2 53593  53.2164 124.7622 0000974  79.0670 281.0432 15.08841328 53661,6917.876,95.437,540.415,539.068,0.0
53593.0,STARLINK-4671,PAYLOAD,2023-08-18 02:37:09,15.08859973,0.0001306,53.2187,119.703,98.0322,262.0818,-4.7896e-05,-1.051e-05,0.0,0 STARLINK-4671,1 53593U 22104F   23230.10913335 -.00001051  00000-0 -47896-4 0  9996,2 53593  53.2187 119.7030 0001306  98.0322 262.0818 15.08859973 53839,6917.819,95.436,540.588,538.781,0.0
53593.0,STARLINK-4671,PAYLOAD,2023-08-18 16:55:38,15.08833989,0.0001477,53.2178,117.0287,87.9468,272.1693,-1.7641e-05,-5.69e-06,0.0,0 STARLINK-4671,1 53593U 22104F   23230.70531145 -.00000569  00000-0 -17641-4 0  9995,2 53593  53.2178 117.0287 0001477  87.9468 272.1693 15.08833989 53923,6917.899,95.438,540.786,538.742,0.0
53593.0,STARLINK-4671,PAYLOAD,2023-08-19 19:57:12,15.08835373,0.0001191,53.2178,111.9734,85.5483,274.5645,-2.8617e-05,-7.43e-06,0.0,0 STARLINK-4671,1 53593U 22104F   23231.83139546 -.00000743  00000-0 -28617-4 0  9998,2 53593  53.2178 111.9734 0001191  85.5483 274.5645 15.08835373 54098,6917.895,95.438,540.583,538.936,0.0
53593.0,STARLINK-4671,PAYLOAD,2023-08-21 00:34:08,15.08846178,0.0001125,53.2175,106.6211,85.5781,274.5339,0.0001919,2.768e-05,0.0,0 STARLINK-4671,1 53593U 22104F   23233.02370516  .00002768  00000-0  19190-3 0  9997,2 53593  53.2175 106.6211 0001125  85.5781 274.5339 15.08846178 54279,6917.862,95.437,540.505,538.948,0.0
53593.0,STARLINK-4671,PAYLOAD,2023-08-21 19:38:46,15.0883745,0.0001218,53.2177,103.0521,85.0602,275.0529,5.5099e-05,5.89e-06,0.0,0 STARLINK-4671,1 53593U 22104F   23233.81859714  .00000589  00000-0  55099-4 0  9994,2 53593  53.2177 103.0521 0001218  85.0602 275.0529 15.08837450 54399,6917.888,95.438,540.596,538.911,0.0
53593.0,STARLINK-4671,PAYLOAD,2023-08-22 14:43:25,15.08834865,0.0001233,53.217,99.4853,80.6703,279.4428,-5.7096e-05,-1.196e-05,0.0,0 STARLINK-4671,1 53593U 22104F   23234.61348500 -.00001196  00000-0 -57096-4 0  9995,2 53593  53.2170  99.4853 0001233  80.6703 279.4428 15.08834865 54515,6917.896,95.438,540.614,538.908,0.0
53593.0,STARLINK-4671,PAYLOAD,2023-08-23 00:15:44,15.08827703,0.0001106,53.2174,97.6975,96.896,263.2158,-0.00016379,-2.893e-05,0.0,0 STARLINK-4671,1 53593U 22104F   23235.01093428 -.00002893  00000-0 -16379-3 0  9999,2 53593  53.2174  97.6975 0001106  96.8960 263.2158 15.08827703 54577,6917.918,95.438,540.548,539.018,0.0
53593.0,STARLINK-4671,PAYLOAD,2023-08-24 17:35:44,15.08842345,0.0001133,53.2174,89.9702,43.0638,317.0443,0.00038294,5.812e-05,0.0,0 STARLINK-4671,1 53593U 22104F   23236.73315873  .00005812  00000-0  38294-3 0  9992,2 53593  53.2174  89.9702 0001133  43.0638 317.0443 15.08842345 54838,6917.873,95.437,540.522,538.954,0.0
53593.0,STARLINK-4671,PAYLOAD,2023-08-25 09:29:36,15.08845818,0.000119,53.217,86.9972,73.8457,286.2666,0.0001936,2.795e-05,0.0,0 STARLINK-4671,1 53593U 22104F   23237.39556099  .00002795  00000-0  19360-3 0  9992,2 53593  53.2170  86.9972 0001190  73.8457 286.2666 15.08845818 55959,6917.863,95.437,540.551,538.904,0.0
53593.0,STARLINK-4671,PAYLOAD,2023-08-25 19:01:54,15.08848759,9.38e-05,53.2167,85.2138,104.2594,255.8503,-5.9725e-06,-3.83e-06,0.0,0 STARLINK-4671,1 53593U 22104F   23237.79299686 -.00000383  00000-0 -59725-5 0  9996,2 53593  53.2167  85.2138 0000938 104.2594 255.8503 15.08848759 54993,6917.854,95.437,540.368,539.07,0.0
53593.0,STARLINK-4671,PAYLOAD,2023-08-25 20:37:17,15.08851318,0.0001131,53.2163,84.914,129.9234,230.1858,1.5628e-05,-3.9e-07,0.0,0 STARLINK-4671,1 53593U 22104F   23237.85923365 -.00000039  00000-0  15628-4 0  9991,2 53593  53.2163  84.9140 0001131 129.9234 230.1858 15.08851318 56029,6917.846,95.437,540.493,538.928,0.0
53593.0,STARLINK-4671,PAYLOAD,2023-08-26 14:06:32,15.08849436,0.0001134,53.2168,81.6433,86.6815,273.4307,-0.00010154,-1.904e-05,0.0,0 STARLINK-4671,1 53593U 22104F   23238.58787924 -.00001904  00000-0 -10154-3 0  9992,2 53593  53.2168  81.6433 0001134  86.6815 273.4307 15.08849436 56139,6917.852,95.437,540.501,538.932,0.0
53593.0,STARLINK-4671,PAYLOAD,2023-08-26 20:28:04,15.08858299,0.0001116,53.2166,80.4534,89.916,270.196,-0.00021067,-3.641e-05,0.0,0 STARLINK-4671,1 53593U 22104F   23238.85283430 -.00003641  00000-0 -21067-3 0  9990,2 53593  53.2166  80.4534 0001116  89.9160 270.1960 15.08858299 56175,6917.824,95.436,540.461,538.917,0.0
53593.0,STARLINK-4671,PAYLOAD,2023-08-26 23:38:50,15.0886266,0.0001082,53.2167,79.8586,85.2594,274.8522,-0.00025727,-4.382e-05,0.0,0 STARLINK-4671,1 53593U 22104F   23238.98531111 -.00004382  00000-0 -25727-3 0  9996,2 53593  53.2167  79.8586 0001082  85.2594 274.8522 15.08862660 55178,6917.811,95.436,540.425,538.928,0.0
53593.0,STARLINK-4671,PAYLOAD,2023-08-27 17:08:05,15.08839396,0.0001191,53.2169,76.587,93.4958,266.6171,6.6127e-05,7.65e-06,0.0,0 STARLINK-4671,1 53593U 22104F   23239.71395711  .00000765  00000-0  66127-4 0  9991,2 53593  53.2169  76.5870 0001191  93.4958 266.6171 15.08839396 55287,6917.882,95.438,540.571,538.923,0.0
53593.0,STARLINK-4671,PAYLOAD,2023-08-27 18:43:28,15.08840059,0.0001182,53.217,76.2896,93.0213,267.0915,7.0218e-05,8.3e-06,0.0,0 STARLINK-4671,1 53593U 22104F   23239.78019655  .00000830  00000-0  70218-4 0  9997,2 53593  53.2170  76.2896 0001182  93.0213 267.0915 15.08840059 56318,6917.88,95.438,540.563,538.928,0.0
53593.0,STARLINK-4671,PAYLOAD,2023-08-28 15:23:30,15.08829191,0.0001188,53.2174,72.4238,88.9321,271.1807,-6.8471e-06,-3.97e-06,0.0,0 STARLINK-4671,1 53593U 22104F   23240.64132796 -.00000397  00000-0 -68471-5 0  9995,2 53593  53.2174  72.4238 0001188  88.9321 271.1807 15.08829191 55420,6917.913,95.438,540.6,538.957,0.0
53593.0,STARLINK-4671,PAYLOAD,2023-08-28 20:09:39,15.08835029,0.0001196,53.2172,71.5324,88.3428,271.7701,4.2732e-05,3.92e-06,0.0,0 STARLINK-4671,1 53593U 22104F   23240.84004392  .00000392  00000-0  42732-4 0  9991,2 53593  53.2172  71.5324 0001196  88.3428 271.7701 15.08835029 56477,6917.896,95.438,540.588,538.933,0.0
53593.0,STARLINK-4671,PAYLOAD,2023-08-28 21:45:02,15.08837071,0.0001228,53.2172,71.2346,91.4766,268.6367,5.8534e-05,6.44e-06,0.0,0 STARLINK-4671,1 53593U 22104F   23240.90628223  .00000644  00000-0  58534-4 0  9990,2 53593  53.2172  71.2346 0001228  91.4766 268.6367 15.08837071 55464,6917.889,95.438,540.604,538.905,0.0
53593.0,STARLINK-4671,PAYLOAD,2023-08-29 20:00:26,15.08843564,0.000123,53.2175,67.0719,86.0413,274.072,8.0235e-05,9.89e-06,0.0,0 STARLINK-4671,1 53593U 22104F   23241.83363954  .00000989  00000-0  80235-4 0  9995,2 53593  53.2175  67.0719 0001230  86.0413 274.0720 15.08843564 56623,6917.869,95.437,540.585,538.884,0.0
53593.0,STARLINK-4671,PAYLOAD,2023-08-30 16:40:27,15.08839029,0.0001231,53.2177,63.2063,87.6157,272.4976,0.00012069,1.633e-05,0.0,0 STARLINK-4671,1 53593U 22104F   23242.69476114  .00001633  00000-0  12069-3 0  9999,2 53593  53.2177  63.2063 0001231  87.6157 272.4976 15.08839029 55735,6917.883,95.438,540.6,538.897,0.0
53593.0,STARLINK-4671,PAYLOAD,2023-08-30 18:15:50,15.08840069,0.0001204,53.2173,62.9096,88.7169,271.3961,0.00012456,1.695e-05,0.0,0 STARLINK-4671,1 53593U 22104F   23242.76100038  .00001695  00000-0  12456-3 0  9994,2 53593  53.2173  62.9096 0001204  88.7169 271.3961 15.08840069 56760,6917.88,95.438,540.578,538.912,0.0
53593.0,STARLINK-4671,PAYLOAD,2023-08-31 14:55:50,15.08879426,0.0001454,53.2174,59.0443,76.616,283.4994,-0.00050014,-8.248e-05,0.0,0 STARLINK-4671,1 53593U 22104F   23243.62211050 -.00008248  00000-0 -50014-3 0  9992,2 53593  53.2174  59.0443 0001454  76.6160 283.4994 15.08879426 55878,6917.76,95.435,540.631,538.619,0.0
53593.0,STARLINK-4671,PAYLOAD,2023-09-01 05:14:19,15.08842655,0.0001134,53.2178,56.3683,84.3763,275.7358,1.6727e-05,-2.2e-07,0.0,0 STARLINK-4671,1 53593U 22104F   23244.21828083 -.00000022  00000-0  16727-4 0  9993,2 53593  53.2178  56.3683 0001134  84.3763 275.7358 15.08842655 55960,6917.872,95.437,540.522,538.953,0.0
53593.0,STARLINK-4671,PAYLOAD,2023-09-01 17:57:24,15.08826812,0.0001009,53.2174,53.9891,94.3304,265.7803,0.00024052,3.541e-05,0.0,0 STARLINK-4671,1 53593U 22104F   23244.74820600  .00003541  00000-0  24052-3 0  9995,2 53593  53.2174  53.9891 0001009  94.3304 265.7803 15.08826812 56044,6917.921,95.438,540.484,539.088,0.0
